[{"OBJECT_NAME":"QIANFAN-75","OBJECT_ID":"2025-046C","EPOCH":"2026-03-09T21:32:02.206464","MEAN_MOTION":13.50950936,"ECCENTRICITY":0.00144335,"INCLINATION":88.9753,"RA_OF_ASC_NODE":311.1445,"ARG_OF_PERICENTER":232.727,"MEAN_ANOMALY":127.2565,"EPHEMERIS_TYPE":0,"CLASSIFICATION_TYPE":"U","NORAD_CAT_ID":63161,"ELEMENT_SET_NO":999,"REV_AT_EPOCH":5911,"BSTAR":5.5418738e-5,"MEAN_MOTION_DOT":4.8e-7,"MEAN_MOTION_DDOT":0},{"OBJECT_NAME":"FENGYUN 1C DEB","OBJECT_ID":"1999-025BPX","EPOCH":"2026-03-09T23:02:28.156704","MEAN_MOTION":13.75865141,"ECCENTRICITY":0.01689487,"INCLINATION":98.8249,"RA_OF_ASC_NODE":326.4403,"ARG_OF_PERICENTER":214.0557,"MEAN_ANOMALY":211.6077,"EPHEMERIS_TYPE":0,"CLASSIFICATION_TYPE":"U","NORAD_CAT_ID":31319,"ELEMENT_SET_NO":999,"REV_AT_EPOCH":94887,"BSTAR":0.00013230373,"MEAN_MOTION_DOT":1.02e-6,"MEAN_MOTION_DDOT":0}]
